COMMENT,ORIGINATOR,NORAD_CAT_ID,OBJECT_NAME,OBJECT_TYPE,CLASSIFICATION_TYPE,INTLDES,EPOCH,EPOCH_MICROSECONDS,MEAN_MOTION,ECCENTRICITY,INCLINATION,RA_OF_ASC_NODE,ARG_OF_PERICENTER,MEAN_ANOMALY,EPHEMERIS_TYPE,ELEMENT_SET_NO,REV_AT_EPOCH,BSTAR,MEAN_MOTION_DOT,MEAN_MOTION_DDOT,FILE,TLE_LINE0,TLE_LINE1,TLE_LINE2,OBJECT_ID,OBJECT_NUMBER,SEMIMAJOR_AXIS,PERIOD,APOGEE,PERIGEE,DECAYED
"GENERATED VIA SPACETRACK.ORG API","18 SPCS","48883","SPACEBEE-100","PAYLOAD","U","21059E","2023-12-21 22:33:26","695584","15.55779145","0.0004477","97.606","140.324","306.7766","53.3077","0","999","13830","0.0017621","0.00123186","0","4141951","0 SPACEBEE-100","1 48883U 21059E   23355.93989231  .00123186  00000-0  17621-2 0  9990","2 48883  97.6060 140.3240 0004477 306.7766  53.3077 15.55779145138301","2021-059E","48883","6778.026","92.558","402.925","396.856","0"
"GENERATED VIA SPACETRACK.ORG API","18 SPCS","48883","SPACEBEE-100","PAYLOAD","U","21059E","2023-12-21 22:33:26","695584","15.55779145","0.0004477","97.606","140.324","306.7766","53.3077","0","999","13830","0.0017621","0.00123186","0","4142142","0 SPACEBEE-100","1 48883U 21059E   23355.93989231  .00123186  00000-0  17621-2 0  9990","2 48883  97.6060 140.3240 0004477 306.7766  53.3077 15.55779145138301","2021-059E","48883","6778.026","92.558","402.925","396.856","0"
"GENERATED VIA SPACETRACK.ORG API","18 SPCS","48883","SPACEBEE-100","PAYLOAD","U","21059E","2023-12-22 09:21:44","894016","15.5590599","0.0004431","97.6062","140.8024","304.5918","55.4917","0","999","13837","0.0017378","0.00122035","0","4142426","0 SPACEBEE-100","1 48883U 21059E   23356.39010294  .00122035  00000-0  17378-2 0  9996","2 48883  97.6062 140.8024 0004431 304.5918  55.4917 15.55905990138375","2021-059E","48883","6777.657","92.551","402.525","396.519","0"
"GENERATED VIA SPACETRACK.ORG API","18 SPCS","48883","SPACEBEE-100","PAYLOAD","U","21059E","2023-12-22 09:21:44","894016","15.5590599","0.0004431","97.6062","140.8024","304.5918","55.4917","0","999","13837","0.0017378","0.00122035","0","4142519","0 SPACEBEE-100","1 48883U 21059E   23356.39010294  .00122035  00000-0  17378-2 0  9996","2 48883  97.6062 140.8024 0004431 304.5918  55.4917 15.55905990138375","2021-059E","48883","6777.657","92.551","402.525","396.519","0"
"GENERATED VIA SPACETRACK.ORG API","18 SPCS","48883","SPACEBEE-100","PAYLOAD","U","21059E","2023-12-22 21:42:36","450720","15.56038881","0.0004578","97.606","141.3508","305.2817","54.8009","0","999","13845","0.0018165","0.00128294","0","4142803","0 SPACEBEE-100","1 48883U 21059E   23356.90458855  .00128294  00000-0  18165-2 0  9990","2 48883  97.6060 141.3508 0004578 305.2817  54.8009 15.56038881138455","2021-059E","48883","6777.271","92.543","402.239","396.034","0"
"GENERATED VIA SPACETRACK.ORG API","18 SPCS","48883","SPACEBEE-100","PAYLOAD","U","21059E","2023-12-23 08:30:48","355776","15.5615638","0.0004467","97.606","141.8297","302.9479","57.1346","0","999","13852","0.0017038","0.00120733","0","4143322","0 SPACEBEE-100","1 48883U 21059E   23357.35472634  .00120733  00000-0  17038-2 0  9999","2 48883  97.6060 141.8297 0004467 302.9479  57.1346 15.56156380138523","2021-059E","48883","6776.930","92.536","401.823","395.768","0"
"GENERATED VIA SPACETRACK.ORG API","18 SPCS","48883","SPACEBEE-100","PAYLOAD","U","21059E","2023-12-23 08:30:48","355776","15.5615638","0.0004467","97.606","141.8297","302.9479","57.1346","0","999","13852","0.0017038","0.00120733","0","4143387","0 SPACEBEE-100","1 48883U 21059E   23357.35472634  .00120733  00000-0  17038-2 0  9999","2 48883  97.6060 141.8297 0004467 302.9479  57.1346 15.56156380138523","2021-059E","48883","6776.930","92.536","401.823","395.768","0"
"GENERATED VIA SPACETRACK.ORG API","18 SPCS","48883","SPACEBEE-100","PAYLOAD","U","21059E","2023-12-23 22:24:08","32320","15.56309766","0.000458","97.6055","142.4459","304.3934","55.6887","0","999","13861","0.0019635","0.00140284","0","4143662","0 SPACEBEE-100","1 48883U 21059E   23357.93342630  .00140284  00000-0  19635-2 0  9993","2 48883  97.6055 142.4459 0004580 304.3934  55.6887 15.56309766138613","2021-059E","48883","6776.485","92.527","401.454","395.246","0"
"GENERATED VIA SPACETRACK.ORG API","18 SPCS","48883","SPACEBEE-100","PAYLOAD","U","21059E","2023-12-23 22:24:08","32320","15.56309766","0.000458","97.6055","142.4459","304.3934","55.6887","0","999","13861","0.0019635","0.00140284","0","4143833","0 SPACEBEE-100","1 48883U 21059E   23357.93342630  .00140284  00000-0  19635-2 0  9993","2 48883  97.6055 142.4459 0004580 304.3934  55.6887 15.56309766138613","2021-059E","48883","6776.485","92.527","401.454","395.246","0"
"GENERATED VIA SPACETRACK.ORG API","18 SPCS","48883","SPACEBEE-100","PAYLOAD","U","21059E","2023-12-24 09:12:13","168800","15.56432651","0.0004607","97.6054","142.9245","302.1761","57.9046","0","999","13868","0.0019057","0.00136709","0","4144212","0 SPACEBEE-100","1 48883U 21059E   23358.38348575  .00136709  00000-0  19057-2 0  9992","2 48883  97.6054 142.9245 0004607 302.1761  57.9046 15.56432651138683","2021-059E","48883","6776.128","92.519","401.115","394.872","0"
"GENERATED VIA SPACETRACK.ORG API","18 SPCS","48883","SPACEBEE-100","PAYLOAD","U","21059E","2023-12-24 21:32:49","526016","15.56576478","0.0004692","97.6053","143.4732","301.9465","58.1333","0","999","13876","0.0019151","0.00138142","0","4144500","0 SPACEBEE-100","1 48883U 21059E   23358.89779544  .00138142  00000-0  19151-2 0  9990","2 48883  97.6053 143.4732 0004692 301.9465  58.1333 15.56576478138768","2021-059E","48883","6775.711","92.511","400.755","394.397","0"
"GENERATED VIA SPACETRACK.ORG API","18 SPCS","48883","SPACEBEE-100","PAYLOAD","U","21059E","2023-12-25 08:20:47","900832","15.56702164","0.0004608","97.6057","143.9528","300.1277","59.952","0","999","13883","0.0017613","0.0012746","0","4144972","0 SPACEBEE-100","1 48883U 21059E   23359.34777663  .00127460  00000-0  17613-2 0  9993","2 48883  97.6057 143.9528 0004608 300.1277  59.9520 15.56702164138837","2021-059E","48883","6775.346","92.503","400.333","394.089","0"
"GENERATED VIA SPACETRACK.ORG API","18 SPCS","48883","SPACEBEE-100","PAYLOAD","U","21059E","2023-12-25 08:20:47","900832","15.56702164","0.0004608","97.6057","143.9528","300.1277","59.952","0","999","13883","0.0017613","0.0012746","0","4145093","0 SPACEBEE-100","1 48883U 21059E   23359.34777663  .00127460  00000-0  17613-2 0  9993","2 48883  97.6057 143.9528 0004608 300.1277  59.9520 15.56702164138837","2021-059E","48883","6775.346","92.503","400.333","394.089","0"
"GENERATED VIA SPACETRACK.ORG API","18 SPCS","48883","SPACEBEE-100","PAYLOAD","U","21059E","2023-12-25 22:13:49","964736","15.56856063","0.0004636","97.6055","144.57","300.6408","59.4389","0","999","13892","0.0018128","0.00132014","0","4145360","0 SPACEBEE-100","1 48883U 21059E   23359.92627274  .00132014  00000-0  18128-2 0  9992","2 48883  97.6055 144.5700 0004636 300.6408  59.4389 15.56856063138922","2021-059E","48883","6774.900","92.494","399.905","393.624","0"
"GENERATED VIA SPACETRACK.ORG API","18 SPCS","48883","SPACEBEE-100","PAYLOAD","U","21059E","2023-12-26 09:01:41","499264","15.56974387","0.0004572","97.6057","145.0492","298.7421","61.3373","0","999","13899","0.0017267","0.00126199","0","4145855","0 SPACEBEE-100","1 48883U 21059E   23360.37617476  .00126199  00000-0  17267-2 0  9996","2 48883  97.6057 145.0492 0004572 298.7421  61.3373 15.56974387138991","2021-059E","48883","6774.556","92.487","399.519","393.324","0"
"GENERATED VIA SPACETRACK.ORG API","18 SPCS","48883","SPACEBEE-100","PAYLOAD","U","21059E","2023-12-26 09:01:41","499264","15.56974387","0.0004572","97.6057","145.0492","298.7421","61.3373","0","999","13899","0.0017267","0.00126199","0","4145944","0 SPACEBEE-100","1 48883U 21059E   23360.37617476  .00126199  00000-0  17267-2 0  9996","2 48883  97.6057 145.0492 0004572 298.7421  61.3373 15.56974387138991","2021-059E","48883","6774.556","92.487","399.519","393.324","0"
"GENERATED VIA SPACETRACK.ORG API","18 SPCS","48883","SPACEBEE-100","PAYLOAD","U","21059E","2023-12-26 21:22:02","483328","15.57112614","0.0004562","97.6059","145.5979","298.8258","61.2539","0","999","13907","0.0018111","0.00133167","0","4146233","0 SPACEBEE-100","1 48883U 21059E   23360.89030652  .00133167  00000-0  18111-2 0  9990","2 48883  97.6059 145.5979 0004562 298.8258  61.2539 15.57112614139077","2021-059E","48883","6774.155","92.479","399.111","392.930","0"
"GENERATED VIA SPACETRACK.ORG API","18 SPCS","48883","SPACEBEE-100","PAYLOAD","U","21059E","2023-12-26 21:22:02","483328","15.57112614","0.0004562","97.6059","145.5979","298.8258","61.2539","0","999","13907","0.0018111","0.00133167","0","4146399","0 SPACEBEE-100","1 48883U 21059E   23360.89030652  .00133167  00000-0  18111-2 0  9990","2 48883  97.6059 145.5979 0004562 298.8258  61.2539 15.57112614139077","2021-059E","48883","6774.155","92.479","399.111","392.930","0"
"GENERATED VIA SPACETRACK.ORG API","18 SPCS","48883","SPACEBEE-100","PAYLOAD","U","21059E","2023-12-27 09:42:19","513728","15.57248113","0.0004533","97.6063","146.1457","297.2207","62.8586","0","999","13915","0.0016471","0.00121533","0","4146803","0 SPACEBEE-100","1 48883U 21059E   23361.40439252  .00121533  00000-0  16471-2 0  9998","2 48883  97.6063 146.1457 0004533 297.2207  62.8586 15.57248113139157","2021-059E","48883","6773.763","92.471","398.698","392.557","0"
"GENERATED VIA SPACETRACK.ORG API","18 SPCS","48883","SPACEBEE-100","PAYLOAD","U","21059E","2023-12-27 22:02:32","866080","15.57374175","0.0004747","97.6057","146.6939","297.7484","62.3289","0","999","13923","0.0016142","0.00119639","0","4147095","0 SPACEBEE-100","1 48883U 21059E   23361.91843595  .00119639  00000-0  16142-2 0  9992","2 48883  97.6057 146.6939 0004747 297.7484  62.3289 15.57374175139231","2021-059E","48883","6773.397","92.463","398.477","392.047","0"
